[{"OBJECT_NAME":"BEIJING 1","OBJECT_ID":"2005-043A","EPOCH":"2026-02-01T23:33:54.966816","MEAN_MOTION":14.63424057,"ECCENTRICITY":0.0014419,"INCLINATION":98.2678,"RA_OF_ASC_NODE":165.6227,"ARG_OF_PERICENTER":349.8295,"MEAN_ANOMALY":10.2613,"EPHEMERIS_TYPE":0,"CLASSIFICATION_TYPE":"U","NORAD_CAT_ID":28890,"ELEMENT_SET_NO":999,"REV_AT_EPOCH":8087,"BSTAR":6.2132968e-5,"MEAN_MOTION_DOT":2.73e-6,"MEAN_MOTION_DDOT":0},{"OBJECT_NAME":"HUANJING 1A (HJ-1A)","OBJECT_ID":"2008-041A","EPOCH":"2026-02-01T22:59:40.557984","MEAN_MOTION":14.8359574,"ECCENTRICITY":0.0017935,"INCLINATION":97.658,"RA_OF_ASC_NODE":24.1374,"ARG_OF_PERICENTER":219.3325,"MEAN_ANOMALY":140.6588,"EPHEMERIS_TYPE":0,"CLASSIFICATION_TYPE":"U","NORAD_CAT_ID":33320,"ELEMENT_SET_NO":999,"REV_AT_EPOCH":93835,"BSTAR":0.00014736477,"MEAN_MOTION_DOT":1.167e-5,"MEAN_MOTION_DDOT":0},{"OBJECT_NAME":"HUANJING 1B (HJ-1B)","OBJECT_ID":"2008-041B","EPOCH":"2026-02-01T22:29:00.872160","MEAN_MOTION":14.83002146,"ECCENTRICITY":0.00349989,"INCLINATION":97.6431,"RA_OF_ASC_NODE":27.6777,"ARG_OF_PERICENTER":267.5041,"MEAN_ANOMALY":92.2166,"EPHEMERIS_TYPE":0,"CLASSIFICATION_TYPE":"U","NORAD_CAT_ID":33321,"ELEMENT_SET_NO":999,"REV_AT_EPOCH":93836,"BSTAR":0.00020288826,"MEAN_MOTION_DOT":1.614e-5,"MEAN_MOTION_DDOT":0},{"OBJECT_NAME":"YAOGAN-4","OBJECT_ID":"2008-061A","EPOCH":"2026-02-01T19:44:59.584704","MEAN_MOTION":14.82866312,"ECCENTRICITY":0.00150576,"INCLINATION":97.9224,"RA_OF_ASC_NODE":327.4392,"ARG_OF_PERICENTER":146.5803,"MEAN_ANOMALY":213.6364,"EPHEMERIS_TYPE":0,"CLASSIFICATION_TYPE":"U","NORAD_CAT_ID":33446,"ELEMENT_SET_NO":999,"REV_AT_EPOCH":92560,"BSTAR":0.00016891375,"MEAN_MOTION_DOT":1.317e-5,"MEAN_MOTION_DDOT":0},{"OBJECT_NAME":"DEIMOS-1","OBJECT_ID":"2009-041A","EPOCH":"2026-02-01T23:59:34.238976","MEAN_MOTION":14.75051809,"ECCENTRICITY":1.137e-5,"INCLINATION":97.7187,"RA_OF_ASC_NODE":196.2333,"ARG_OF_PERICENTER":48.82,"MEAN_ANOMALY":311.302,"EPHEMERIS_TYPE":0,"CLASSIFICATION_TYPE":"U","NORAD_CAT_ID":35681,"ELEMENT_SET_NO":999,"REV_AT_EPOCH":88695,"BSTAR":9.2507929e-5,"MEAN_MOTION_DOT":5.76e-6,"MEAN_MOTION_DDOT":0},{"OBJECT_NAME":"UK-DMC 2","OBJECT_ID":"2009-041C","EPOCH":"2026-02-01T23:20:54.398112","MEAN_MOTION":14.75763556,"ECCENTRICITY":0.00013956,"INCLINATION":97.8594,"RA_OF_ASC_NODE":171.4461,"ARG_OF_PERICENTER":74.3841,"MEAN_ANOMALY":285.7523,"EPHEMERIS_TYPE":0,"CLASSIFICATION_TYPE":"U","NORAD_CAT_ID":35683,"ELEMENT_SET_NO":999,"REV_AT_EPOCH":88662,"BSTAR":0.00016364681,"MEAN_MOTION_DOT":1.071e-5,"MEAN_MOTION_DDOT":0},{"OBJECT_NAME":"DMC3-FM1","OBJECT_ID":"2015-032A","EPOCH":"2026-02-01T21:29:24.293184","MEAN_MOTION":14.85549419,"ECCENTRICITY":0.00064733,"INCLINATION":97.6664,"RA_OF_ASC_NODE":263.2177,"ARG_OF_PERICENTER":128.1349,"MEAN_ANOMALY":232.0451,"EPHEMERIS_TYPE":0,"CLASSIFICATION_TYPE":"U","NORAD_CAT_ID":40715,"ELEMENT_SET_NO":999,"REV_AT_EPOCH":56982,"BSTAR":5.753145e-5,"MEAN_MOTION_DOT":4.46e-6,"MEAN_MOTION_DDOT":0},{"OBJECT_NAME":"DMC3-FM2","OBJECT_ID":"2015-032B","EPOCH":"2026-02-01T22:01:41.172960","MEAN_MOTION":14.85552924,"ECCENTRICITY":0.00068895,"INCLINATION":97.6719,"RA_OF_ASC_NODE":264.7196,"ARG_OF_PERICENTER":134.0501,"MEAN_ANOMALY":226.1283,"EPHEMERIS_TYPE":0,"CLASSIFICATION_TYPE":"U","NORAD_CAT_ID":40716,"ELEMENT_SET_NO":999,"REV_AT_EPOCH":56982,"BSTAR":0.00012184118,"MEAN_MOTION_DOT":1.002e-5,"MEAN_MOTION_DDOT":0},{"OBJECT_NAME":"DMC3-FM3","OBJECT_ID":"2015-032C","EPOCH":"2026-02-01T22:33:51.780096","MEAN_MOTION":14.85523954,"ECCENTRICITY":0.00063106,"INCLINATION":97.6775,"RA_OF_ASC_NODE":266.4074,"ARG_OF_PERICENTER":132.6466,"MEAN_ANOMALY":227.5282,"EPHEMERIS_TYPE":0,"CLASSIFICATION_TYPE":"U","NORAD_CAT_ID":40717,"ELEMENT_SET_NO":999,"REV_AT_EPOCH":56983,"BSTAR":0.00017612604,"MEAN_MOTION_DOT":1.47e-5,"MEAN_MOTION_DDOT":0}]
