BEIJING 1               
1 28890U 05043A   26032.98188619  .00000273  00000+0  62133-4 0  9992
2 28890  98.2678 165.6227 0014419 349.8295  10.2613 14.63424057 80879
HUANJING 1A (HJ-1A)     
1 33320U 08041A   26032.95810831  .00001167  00000+0  14736-3 0  9990
2 33320  97.6580  24.1374 0017935 219.3325 140.6588 14.83595740938355
HUANJING 1B (HJ-1B)     
1 33321U 08041B   26032.93681565  .00001614  00000+0  20289-3 0  9996
2 33321  97.6431  27.6777 0034998 267.5041  92.2166 14.83002146938362
YAOGAN-4                
1 33446U 08061A   26032.82291186  .00001317  00000+0  16891-3 0  9994
2 33446  97.9224 327.4392 0015057 146.5803 213.6364 14.82866312925608
DEIMOS-1                
1 35681U 09041A   26032.99970184  .00000576  00000+0  92508-4 0  9992
2 35681  97.7187 196.2333 0000113  48.8200 311.3020 14.75051809886954
UK-DMC 2                
1 35683U 09041C   26032.97285183  .00001071  00000+0  16365-3 0  9997
2 35683  97.8594 171.4461 0001395  74.3841 285.7523 14.75763556886629
DMC3-FM1                
1 40715U 15032A   26032.89542006  .00000446  00000+0  57531-4 0  9993
2 40715  97.6664 263.2177 0006473 128.1349 232.0451 14.85549419569820
DMC3-FM2                
1 40716U 15032B   26032.91783765  .00001002  00000+0  12184-3 0  9999
2 40716  97.6719 264.7196 0006889 134.0501 226.1283 14.85552924569828
DMC3-FM3                
1 40717U 15032C   26032.94018264  .00001470  00000+0  17613-3 0  9999
2 40717  97.6775 266.4074 0006310 132.6466 227.5282 14.85523954569834
